NORAD_CAT_ID,OBJECT_NAME,OBJECT_TYPE,EPOCH,MEAN_MOTION,ECCENTRICITY,INCLINATION,RA_OF_ASC_NODE,ARG_OF_PERICENTER,MEAN_ANOMALY,BSTAR,MEAN_MOTION_DOT,MEAN_MOTION_DDOT,TLE_LINE0,TLE_LINE1,TLE_LINE2,SEMIMAJOR_AXIS,PERIOD,APOGEE,PERIGEE,DECAYED
49443.0,STARLINK-3136,PAYLOAD,2022-04-15 22:00:00,15.08844553,0.0002229,53.2162,120.6735,34.2142,46.6906,0.00011299,1.511e-05,0.0,0 STARLINK-3136,1 49443U 21104AM  22105.91667824  .00001511  00000-0  11299-3 0  9998,2 49443  53.2162 120.6735 0002229  34.2142  46.6906 15.08844553 25056,6917.866,95.437,541.273,538.189,0.0
49443.0,STARLINK-3136,PAYLOAD,2022-04-16 14:00:01,15.0880788,0.0002434,53.2162,117.6821,28.3122,75.7693,0.00025255,3.73e-05,0.0,0 STARLINK-3136,1 49443U 21104AM  22106.58334491  .00003730  00000-0  25255-3 0  9995,2 49443  53.2162 117.6821 0002434  28.3122  75.7693 15.08807880 25157,6917.979,95.44,541.5269999999998,538.16,0.0
49443.0,STARLINK-3136,PAYLOAD,2022-04-16 22:00:01,15.08790088,0.0002245,53.2165,116.184,32.1963,83.5129,0.002771,0.00044029,0.0,0 STARLINK-3136,1 49443U 21104AM  22106.91668981  .00044029  00000-0  27710-2 0  9999,2 49443  53.2165 116.1840 0002245  32.1963  83.5129 15.08790088  3597,6918.033,95.441,541.451,538.345,0.0
49443.0,STARLINK-3136,PAYLOAD,2022-04-17 14:00:01,15.08826301,0.0002525,53.2167,113.1927,30.7291,108.0355,-0.00025622,-4.363e-05,0.0,0 STARLINK-3136,1 49443U 21104AM  22107.58334491 -.00004363  00000-0 -25622-3 0  9999,2 49443  53.2167 113.1927 0002525  30.7291 108.0355 15.08826301  3560,6917.922,95.438,541.534,538.04,0.0
49443.0,STARLINK-3136,PAYLOAD,2022-04-17 22:00:00,15.08807489,0.0002332,53.2172,111.6948,34.5636,115.783,0.0025866,0.00041082,0.0,0 STARLINK-3136,1 49443U 21104AM  22107.91667824  .00041082  00000-0  25866-2 0  9991,2 49443  53.2172 111.6948 0002332  34.5636 115.7830 15.08807489  3562,6917.98,95.44,541.4580000000002,538.231,0.0
49443.0,STARLINK-3136,PAYLOAD,2022-04-18 08:00:01,15.08825344,0.0002593,53.2175,109.8262,33.3798,221.4416,0.00068387,0.00010608,0.0,0 STARLINK-3136,1 49443U 21104AM  22108.33334491  .00010608  00000-0  68387-3 0  9995,2 49443  53.2175 109.8262 0002593  33.3798 221.4416 15.08825344 25411,6917.925,95.438,541.5840000000002,537.996,0.0
49443.0,STARLINK-3136,PAYLOAD,2022-04-18 14:00:01,15.08844519,0.0002566,53.2173,108.7035,32.9427,140.5587,-0.00087334,-0.00014163,0.0,0 STARLINK-3136,1 49443U 21104AM  22108.58334491 -.00014163  00000-0 -87334-3 0  9997,2 49443  53.2173 108.7035 0002566  32.9427 140.5587 15.08844519  3601,6917.8669999999975,95.437,541.507,537.956,0.0
49443.0,STARLINK-3136,PAYLOAD,2022-04-18 22:00:00,15.08825418,0.0002364,53.2178,107.2057,36.8977,148.2053,0.0024372,0.00038699,0.0,0 STARLINK-3136,1 49443U 21104AM  22108.91667824  .00038699  00000-0  24372-2 0  9993,2 49443  53.2178 107.2057 0002364  36.8977 148.2053 15.08825418  3568,6917.925,95.438,541.425,538.155,0.0
49443.0,STARLINK-3136,PAYLOAD,2022-04-19 14:00:01,15.08865214,0.0002557,53.2177,104.2144,34.973,173.3254,-0.0012654,-0.00020386,0.0,0 STARLINK-3136,1 49443U 21104AM  22109.58334491 -.00020386  00000-0 -12654-2 0  9994,2 49443  53.2177 104.2144 0002557  34.9730 173.3254 15.08865214 25600,6917.803000000001,95.436,541.437,537.899,0.0
49443.0,STARLINK-3136,PAYLOAD,2022-04-20 14:00:01,15.08854328,0.0002489,53.2178,99.7255,35.3177,207.8003,-0.0017449,-0.00027963,0.0,0 STARLINK-3136,1 49443U 21104AM  22110.58334491 -.00027963  00000-0 -17449-2 0  9991,2 49443  53.2178  99.7255 0002489  35.3177 207.8003 15.08854328 25751,6917.837,95.437,541.423,537.98,0.0
49443.0,STARLINK-3136,PAYLOAD,2022-04-20 22:00:00,15.0883421,0.0002334,53.218,98.228,39.9432,214.7811,0.002263,0.00035906,0.0,0 STARLINK-3136,1 49443U 21104AM  22110.91667824  .00035906  00000-0  22630-2 0  9999,2 49443  53.2180  98.2280 0002334  39.9432 214.7811 15.08834210  3588,6917.898,95.438,541.378,538.148,0.0
49443.0,STARLINK-3136,PAYLOAD,2022-04-21 06:00:00,15.0887323,0.0002541,53.2179,96.7365,32.7633,233.5507,-0.0031488,-0.00050102,0.0,0 STARLINK-3136,1 49443U 21104AM  22111.25001157 -.00050102  00000-0 -31488-2 0  9996,2 49443  53.2179  96.7365 0002541  32.7633 233.5507 15.08873230 25857,6917.779,95.435,541.4019999999998,537.886,0.0
49443.0,STARLINK-3136,PAYLOAD,2022-04-21 14:00:01,15.08885238,0.0002466,53.2177,95.2368,36.6756,241.2545,-0.0046053999999999,-0.00072936,0.0,0 STARLINK-3136,1 49443U 21104AM  22111.58334491 -.00072936  00000-0 -46054-2 0  9996,2 49443  53.2177  95.2368 0002466  36.6756 241.2545 15.08885238  3560,6917.7419999999975,95.435,541.313,537.901,0.0
49443.0,STARLINK-3136,PAYLOAD,2022-04-21 22:00:00,15.08827886,0.000232,53.2178,93.7393,40.5481,249.0027,0.0022681,0.00035982,0.0,0 STARLINK-3136,1 49443U 21104AM  22111.91667824  .00035982  00000-0  22681-2 0  9990,2 49443  53.2178  93.7393 0002320  40.5481 249.0027 15.08827886  3588,6917.917,95.438,541.387,538.177,0.0
49443.0,STARLINK-3136,PAYLOAD,2022-04-22 14:00:01,15.08881284,0.0002449,53.2176,90.7479,36.4271,276.3188,-0.0048886,-0.00077347,0.0,0 STARLINK-3136,1 49443U 21104AM  22112.58334491 -.00077347  00000-0 -48886-2 0  9993,2 49443  53.2176  90.7479 0002449  36.4271 276.3188 15.08881284  3607,6917.754,95.435,541.313,537.925,0.0
49443.0,STARLINK-3136,PAYLOAD,2022-04-22 16:00:00,15.08859271,0.0002388,53.2177,90.3733,37.9581,7.6985,-0.0029929,-0.00047633,0.0,0 STARLINK-3136,1 49443U 21104AM  22112.66667824 -.00047633  00000-0 -29929-2 0  9993,2 49443  53.2177  90.3733 0002388  37.9581   7.6985 15.08859271 26076,6917.821,95.436,541.3380000000002,538.035,0.0
49443.0,STARLINK-3136,PAYLOAD,2022-04-23 06:00:02,15.08839374,0.0002536,53.2179,87.756,37.2371,298.7765,-5.6715e-05,-1.191e-05,0.0,0 STARLINK-3136,1 49443U 21104AM  22113.25002315 -.00001191  00000-0 -56715-4 0  9991,2 49443  53.2179  87.7560 0002536  37.2371 298.7765 15.08839374 26151,6917.882,95.438,541.502,537.993,0.0
49443.0,STARLINK-3136,PAYLOAD,2022-04-23 14:00:01,15.08857579,0.0002441,53.2178,86.2587,35.8364,311.7097,-0.0032845999999999,-0.00052212,0.0,0 STARLINK-3136,1 49443U 21104AM  22113.58334491 -.00052212  00000-0 -32846-2 0  9997,2 49443  53.2178  86.2587 0002441  35.8364 311.7097 15.08857579  3565,6917.8269999999975,95.436,541.38,538.003,0.0
49443.0,STARLINK-3136,PAYLOAD,2022-04-24 14:00:01,15.08859842,0.0002423,53.2181,81.7695,36.2077,346.1297,-0.0028441,-0.00045295,0.0,0 STARLINK-3136,1 49443U 21104AM  22114.58334491 -.00045295  00000-0 -28441-2 0  9997,2 49443  53.2181  81.7695 0002423  36.2077 346.1297 15.08859842 26367,6917.82,95.436,541.361,538.009,0.0
49443.0,STARLINK-3136,PAYLOAD,2022-04-25 06:00:00,15.08810975,0.0002498,53.2186,78.7778,35.1146,10.411,0.0014545,0.00022918,0.0,0 STARLINK-3136,1 49443U 21104AM  22115.25001157  .00022918  00000-0  14545-2 0  9997,2 49443  53.2186  78.7778 0002498  35.1146  10.4110 15.08810975 26467,6917.969,95.439,541.562,538.106,0.0
49443.0,STARLINK-3136,PAYLOAD,2022-04-25 14:00:01,15.08850094,0.0002364,53.2186,77.2802,35.2103,21.8845,-0.0019572,-0.00031312,0.0,0 STARLINK-3136,1 49443U 21104AM  22115.58334491 -.00031312  00000-0 -19572-2 0  9998,2 49443  53.2186  77.2802 0002364  35.2103  21.8845 15.08850094  3579,6917.85,95.437,541.35,538.0790000000002,0.0
49443.0,STARLINK-3136,PAYLOAD,2022-04-25 22:00:00,15.08833032,0.0002235,53.2188,75.7834,37.9501,30.7386,-0.00021786,-3.753e-05,0.0,0 STARLINK-3136,1 49443U 21104AM  22115.91667824 -.00003753  00000-0 -21786-3 0  9993,2 49443  53.2188  75.7834 0002235  37.9501  30.7386 15.08833032  3625,6917.901999999999,95.438,541.313,538.221,0.0
49443.0,STARLINK-3136,PAYLOAD,2022-04-26 06:00:00,15.08814108,0.0002434,53.2189,74.2888,34.6645,45.6121,0.0019566,0.00030967,0.0,0 STARLINK-3136,1 49443U 21104AM  22116.25001157  .00030967  00000-0  19566-2 0  9999,2 49443  53.2189  74.2888 0002434  34.6645  45.6121 15.08814108 26612,6917.96,95.439,541.508,538.141,0.0
49443.0,STARLINK-3136,PAYLOAD,2022-04-26 14:00:01,15.08848102,0.0002283,53.2188,72.7911,35.5475,56.369,-0.0010457,-0.00016896,0.0,0 STARLINK-3136,1 49443U 21104AM  22116.58335648 -.00016896  00000-0 -10457-2 0  9997,2 49443  53.2188  72.7911 0002283  35.5475  56.3690 15.08848102  3609,6917.856,95.437,541.3,538.141,0.0
49443.0,STARLINK-3136,PAYLOAD,2022-04-26 22:00:00,15.08853642,0.0002169,53.2191,71.2944,37.8033,65.6479,-0.0016245,-0.0002606,0.0,0 STARLINK-3136,1 49443U 21104AM  22116.91667824 -.00026060  00000-0 -16245-2 0  9993,2 49443  53.2191  71.2944 0002169  37.8033  65.6479 15.08853642 26711,6917.839,95.437,541.2040000000002,538.203,0.0
49443.0,STARLINK-3136,PAYLOAD,2022-04-27 14:00:01,15.08858928,0.0002165,53.2189,68.30199999999999,35.1716,91.5301,-0.0022827,-0.00036454,0.0,0 STARLINK-3136,1 49443U 21104AM  22117.58335648 -.00036454  00000-0 -22827-2 0  9994,2 49443  53.2189  68.3020 0002165  35.1716  91.5301 15.08858928 26810,6917.823,95.436,541.185,538.19,0.0
49443.0,STARLINK-3136,PAYLOAD,2022-04-28 06:00:00,15.08842793,0.0002198,53.219,65.3109,32.3051,117.5569,0.00014544,2.027e-05,0.0,0 STARLINK-3136,1 49443U 21104AM  22118.25001157  .00002027  00000-0  14544-3 0  9999,2 49443  53.2190  65.3109 0002198  32.3051 117.5569 15.08842793 26913,6917.871999999999,95.437,541.257,538.216,0.0
49443.0,STARLINK-3136,PAYLOAD,2022-04-28 14:00:01,15.08846189,0.000202,53.2187,63.813,33.7829,127.6802,0.00019044,2.745e-05,0.0,0 STARLINK-3136,1 49443U 21104AM  22118.58334491  .00002745  00000-0  19044-3 0  9992,2 49443  53.2187  63.8130 0002020  33.7829 127.6802 15.08846189  3604,6917.861,95.437,541.124,538.3290000000002,0.0
49443.0,STARLINK-3136,PAYLOAD,2022-04-29 14:00:01,15.08820711,0.0002067,53.2187,59.3242,37.1533,159.1101,-0.0003793,-6.317e-05,0.0,0 STARLINK-3136,1 49443U 21104AM  22119.58334491 -.00006317  00000-0 -37930-3 0  9998,2 49443  53.2187  59.3242 0002067  37.1533 159.1101 15.08820711 27116,6917.939,95.439,541.234,538.374,0.0
